{
  "norad_id": 54848,
  "name": "STARLINK-5432",
  "history": [
    {
      "epoch": "2026-03-28T19:09:46.127520Z",
      "apogee_km": 488.94364346592556,
      "perigee_km": 487.1620045303953,
      "latitude_deg": 4.12413458346993e-05,
      "longitude_deg": -100.03577868275964,
      "height_km": 487.9763231193434,
      "semi_major_axis_km": 6866.18982399816,
      "eccentricity": 0.00012974,
      "inclination_deg": 43.0027,
      "raan_deg": 13.6201,
      "arg_perigee_deg": 260.5372,
      "mean_anomaly_deg": 99.5333,
      "mean_motion_rev_day": 15.25910471
    },
    {
      "epoch": "2026-03-28T22:18:17.578368Z",
      "apogee_km": 489.0684565778165,
      "perigee_km": 487.047048842619,
      "latitude_deg": -3.76140269134051e-05,
      "longitude_deg": -148.03434823674715,
      "height_km": 488.10536366577423,
      "semi_major_axis_km": 6866.1947527102175,
      "eccentricity": 0.0001472,
      "inclination_deg": 43.0032,
      "raan_deg": 12.8817,
      "arg_perigee_deg": 254.4819,
      "mean_anomaly_deg": 105.5869,
      "mean_motion_rev_day": 15.25908828
    },
    {
      "epoch": "2026-03-29T23:26:26.343456Z",
      "apogee_km": 488.6113882433483,
      "perigee_km": 487.6020504166063,
      "latitude_deg": 6.432010790691156e-06,
      "longitude_deg": -172.002911314112,
      "height_km": 487.76908944609784,
      "semi_major_axis_km": 6866.243719329977,
      "eccentricity": 7.35e-05,
      "inclination_deg": 43.0006,
      "raan_deg": 6.9819,
      "arg_perigee_deg": 283.0532,
      "mean_anomaly_deg": 77.0237,
      "mean_motion_rev_day": 15.25892505
    },
    {
      "epoch": "2026-03-31T00:34:36.140160Z",
      "apogee_km": 489.2423583328882,
      "perigee_km": 486.8989216653563,
      "latitude_deg": 2.9239045441817304e-05,
      "longitude_deg": 164.02769352346573,
      "height_km": 487.367633997045,
      "semi_major_axis_km": 6866.207639999122,
      "eccentricity": 0.00017065,
      "inclination_deg": 43.0032,
      "raan_deg": 1.0856,
      "arg_perigee_deg": 294.2058,
      "mean_anomaly_deg": 65.8615,
      "mean_motion_rev_day": 15.25904532
    },
    {
      "epoch": "2026-04-01T00:08:29.574240Z",
      "apogee_km": 489.0446525547468,
      "perigee_km": 487.07954637247985,
      "latitude_deg": 5.0125263467132854e-05,
      "longitude_deg": 164.0563014656906,
      "height_km": 487.71895449366383,
      "semi_major_axis_km": 6866.199099463613,
      "eccentricity": 0.0001431,
      "inclination_deg": 43.0039,
      "raan_deg": 355.5546,
      "arg_perigee_deg": 277.043,
      "mean_anomaly_deg": 83.0259,
      "mean_motion_rev_day": 15.25907379
    },
    {
      "epoch": "2026-04-02T16:59:14.716608Z",
      "apogee_km": 489.18790493163124,
      "perigee_km": 487.00169672624725,
      "latitude_deg": 5.621560313476373e-06,
      "longitude_deg": -99.89471786073126,
      "height_km": 487.6957137809442,
      "semi_major_axis_km": 6866.231800828939,
      "eccentricity": 0.0001592,
      "inclination_deg": 43.0015,
      "raan_deg": 345.9692,
      "arg_perigee_deg": 279.2807,
      "mean_anomaly_deg": 80.7864,
      "mean_motion_rev_day": 15.25896478
    },
    {
      "epoch": "2026-04-02T16:59:14.717472Z",
      "apogee_km": 489.1880422562681,
      "perigee_km": 487.0015594016113,
      "latitude_deg": 7.173751267362959e-06,
      "longitude_deg": -99.89471981534756,
      "height_km": 487.695691637625,
      "semi_major_axis_km": 6866.231800828939,
      "eccentricity": 0.00015922,
      "inclination_deg": 43.0015,
      "raan_deg": 345.9692,
      "arg_perigee_deg": 279.2807,
      "mean_anomaly_deg": 80.7864,
      "mean_motion_rev_day": 15.25896478
    },
    {
      "epoch": "2026-04-03T02:24:48.153312Z",
      "apogee_km": 489.1152829934108,
      "perigee_km": 487.06791095036533,
      "latitude_deg": -1.6608727474512485e-05,
      "longitude_deg": 116.11622882785964,
      "height_km": 487.7519575218513,
      "semi_major_axis_km": 6866.228596971888,
      "eccentricity": 0.00014909,
      "inclination_deg": 43.0015,
      "raan_deg": 343.7566,
      "arg_perigee_deg": 276.5493,
      "mean_anomaly_deg": 83.5188,
      "mean_motion_rev_day": 15.25897546
    },
    {
      "epoch": "2026-04-04T00:24:25.965216Z",
      "apogee_km": 489.19596761640696,
      "perigee_km": 486.8908535289702,
      "latitude_deg": 2.3245137601742245e-05,
      "longitude_deg": 140.1435668688829,
      "height_km": 487.83353727378,
      "semi_major_axis_km": 6866.180410572689,
      "eccentricity": 0.00016786,
      "inclination_deg": 43.0015,
      "raan_deg": 338.5947,
      "arg_perigee_deg": 269.3601,
      "mean_anomaly_deg": 90.7058,
      "mean_motion_rev_day": 15.25913609
    },
    {
      "epoch": "2026-04-04T23:58:20.272800Z",
      "apogee_km": 489.28986344628447,
      "perigee_km": 486.878721177276,
      "latitude_deg": 3.21046875521388e-06,
      "longitude_deg": 140.16827930060734,
      "height_km": 487.810969146199,
      "semi_major_axis_km": 6866.2212923117795,
      "eccentricity": 0.00017558,
      "inclination_deg": 43.0009,
      "raan_deg": 333.0635,
      "arg_perigee_deg": 272.4047,
      "mean_anomaly_deg": 87.6603,
      "mean_motion_rev_day": 15.25899981
    },
    {
      "epoch": "2026-04-05T17:15:11.325312Z",
      "apogee_km": 489.20602748764304,
      "perigee_km": 486.8948687926004,
      "latitude_deg": -5.292565256090293e-05,
      "longitude_deg": -123.81019985027623,
      "height_km": 487.6794683604717,
      "semi_major_axis_km": 6866.187448140122,
      "eccentricity": 0.0001683,
      "inclination_deg": 43.005,
      "raan_deg": 329.0075,
      "arg_perigee_deg": 277.3907,
      "mean_anomaly_deg": 82.6752,
      "mean_motion_rev_day": 15.25911263
    },
    {
      "epoch": "2026-04-06T01:06:29.192544Z",
      "apogee_km": 489.16943867031205,
      "perigee_km": 486.96566165789227,
      "latitude_deg": -1.573661497716459e-05,
      "longitude_deg": 116.19780051136476,
      "height_km": 487.72345099674806,
      "semi_major_axis_km": 6866.204550164102,
      "eccentricity": 0.00016048,
      "inclination_deg": 43.0034,
      "raan_deg": 327.1625,
      "arg_perigee_deg": 276.3318,
      "mean_anomaly_deg": 83.735,
      "mean_motion_rev_day": 15.25905562
    },
    {
      "epoch": "2026-04-07T14:48:09.588960Z",
      "apogee_km": 489.00891509924713,
      "perigee_km": 485.0209483421104,
      "latitude_deg": 3.310018113450564e-05,
      "longitude_deg": -99.62513033599613,
      "height_km": 488.78109939807473,
      "semi_major_axis_km": 6865.1519317206785,
      "eccentricity": 0.00029045,
      "inclination_deg": 43.0034,
      "raan_deg": 318.3059,
      "arg_perigee_deg": 183.4551,
      "mean_anomaly_deg": 176.6281,
      "mean_motion_rev_day": 15.26256521
    },
    {
      "epoch": "2026-04-07T21:04:41.275200Z",
      "apogee_km": 487.21254903803947,
      "perigee_km": 484.8979434126122,
      "latitude_deg": -3.5267699518307245e-05,
      "longitude_deg": 164.5099456655147,
      "height_km": 486.81853921538016,
      "semi_major_axis_km": 6864.192246225325,
      "eccentricity": 0.0001686,
      "inclination_deg": 43.0031,
      "raan_deg": 316.8308,
      "arg_perigee_deg": 211.5031,
      "mean_anomaly_deg": 148.5719,
      "mean_motion_rev_day": 15.26576612
    },
    {
      "epoch": "2026-04-08T14:20:38.118624Z",
      "apogee_km": 485.57726116715367,
      "perigee_km": 483.4462714722358,
      "latitude_deg": -1.6400863705852312e-07,
      "longitude_deg": -99.24404749751655,
      "height_km": 484.95672301697914,
      "semi_major_axis_km": 6862.648766319694,
      "eccentricity": 0.00015526,
      "inclination_deg": 43.0027,
      "raan_deg": 312.7727,
      "arg_perigee_deg": 231.1643,
      "mean_anomaly_deg": 128.907,
      "mean_motion_rev_day": 15.27091655
    },
    {
      "epoch": "2026-04-09T20:00:01.999008Z",
      "apogee_km": 484.27845325279486,
      "perigee_km": 481.8605640791402,
      "latitude_deg": -24.71288725549452,
      "longitude_deg": 138.32259655115735,
      "height_km": 488.3510062206695,
      "semi_major_axis_km": 6861.206508665967,
      "eccentricity": 0.0001762,
      "inclination_deg": 43.0008,
      "raan_deg": 305.7992,
      "arg_perigee_deg": 271.6385,
      "mean_anomaly_deg": 50.8212,
      "mean_motion_rev_day": 15.27573183
    },
    {
      "epoch": "2026-04-10T06:00:00.999648Z",
      "apogee_km": 484.41248405484384,
      "perigee_km": 481.63220506524067,
      "latitude_deg": 42.8230966224281,
      "longitude_deg": 113.72842186946589,
      "height_km": 487.4826193649665,
      "semi_major_axis_km": 6861.159344560042,
      "eccentricity": 0.00020261,
      "inclination_deg": 43.0013,
      "raan_deg": 303.4438,
      "arg_perigee_deg": 270.3882,
      "mean_anomaly_deg": 186.0486,
      "mean_motion_rev_day": 15.27588934
    },
    {
      "epoch": "2026-04-11T20:00:01.000224Z",
      "apogee_km": 484.39114720211,
      "perigee_km": 481.750954344172,
      "latitude_deg": 4.175581051903197,
      "longitude_deg": -30.01119440421975,
      "height_km": 482.6566399082528,
      "semi_major_axis_km": 6861.208050773141,
      "eccentricity": 0.0001924,
      "inclination_deg": 43.0011,
      "raan_deg": 294.5054,
      "arg_perigee_deg": 274.9918,
      "mean_anomaly_deg": 258.8529,
      "mean_motion_rev_day": 15.27572668
    },
    {
      "epoch": "2026-04-12T21:55:13.400256Z",
      "apogee_km": 484.329970432158,
      "perigee_km": 481.78858333120115,
      "latitude_deg": 5.529941803842011e-06,
      "longitude_deg": 118.48520886045483,
      "height_km": 482.74796792032816,
      "semi_major_axis_km": 6861.196276881679,
      "eccentricity": 0.0001852,
      "inclination_deg": 43.003,
      "raan_deg": 288.4027,
      "arg_perigee_deg": 274.0034,
      "mean_anomaly_deg": 86.0606,
      "mean_motion_rev_day": 15.275766
    }
  ]
}